# From MPC106342
C/1995 O1 (Hale-Bopp),e,89.0103,283.3177,130.5588,179.3578,0.0004103,0.99494273,0.0000,03/29.7219/1997,2000,g -2.0,4.0
# From NK 1615
P/1996 R2 (Lagerkvist),e,2.6003,40.0333,333.3095,3.775049,0.1343756,0.31401708,85.3791,11/08.0/2020,2000,g 11.5,4.0
# From MPC 30063
P/1997 B1 (Kobayashi),e,12.3396,328.8852,183.3617,8.567351,0.0393038,0.76010197,340.1198,11/08.0/2020,2000,g 15.0,2.0
# From MPC 75703
P/1998 VS24 (LINEAR),e,5.0252,159.0310,244.6816,4.529708,0.1022348,0.24195245,104.7911,11/08.0/2020,2000,g 13.0,2.0
# From NK 731
P/1999 RO28 (LONEOS),e,7.5666,137.8832,231.2703,3.426791,0.1553720,0.67204210,77.8260,11/08.0/2020,2000,g 20.0,2.0
# From MPC 75704
P/1999 XN120 (Catalina),e,5.0297,285.2955,161.9052,4.178970,0.1153719,0.21036445,143.7826,11/08.0/2020,2000,g 13.5,2.0
# From NK 744
P/2000 R2 (LINEAR),e,11.6844,160.2949,176.5142,3.466040,0.1527403,0.53155812,77.8356,11/08.0/2020,2000,g 18.0,4.0
# From MPC 43019
P/2001 H5 (NEAT),e,8.3674,328.6853,224.8696,6.098148,0.0654496,0.59870015,120.8540,11/08.0/2020,2000,g 12.0,4.0
# From MPC 75704
P/2001 Q6 (NEAT),e,56.9019,22.1278,42.9470,7.950417,0.0439662,0.82280272,306.8836,11/08.0/2020,2000,g 13.5,4.0
# From MPC 47727
P/2002 EJ57 (LINEAR),e,4.9761,330.3291,167.3612,6.473268,0.0598437,0.59283241,52.2720,11/08.0/2020,2000,g 12.5,4.0
# From MPEC 2020-SI8
P/2002 T5 (LINEAR),e,30.8529,123.0884,326.7674,7.005239,0.0531581,0.43789372,338.6402,11/08.0/2020,2000,g  8.0,4.0
# From MPC109588
P/2002 T6 (NEAT-LINEAR),e,10.8332,206.4677,219.5864,7.669717,0.0464018,0.56001745,297.1847,11/08.0/2020,2000,g 10.5,4.0
# From MPC 50354
P/2003 F2 (NEAT),e,11.6047,359.0754,191.9118,6.489433,0.0596203,0.54218569,21.5668,11/08.0/2020,2000,g 16.5,2.0
# From MPC 50139
P/2003 QX29 (NEAT),e,11.3898,264.5894,37.3973,8.032973,0.0432902,0.47296497,285.0688,11/08.0/2020,2000,g  8.5,4.0
# From MPC105235
P/2003 T12 (SOHO),e,11.0167,174.5734,219.7700,2.586223,0.2369764,0.76964023,43.8737,11/08.0/2020,2000,g 17.0,4.0
# From MPC 82312
P/2004 A1 (LONEOS),e,10.5516,124.8476,21.4265,7.955535,0.0439238,0.30937751,260.4300,11/08.0/2020,2000,g  6.5,4.0
# From MPC 54558
P/2004 DO29 (Spacewatch-LINEAR),e,14.5317,147.3803,40.7261,7.282618,0.0501502,0.44134466,294.5710,11/08.0/2020,2000,g 13.5,2.0
# From MPC 54823
P/2004 FY140 (LINEAR),e,2.1348,326.7618,242.4624,4.901596,0.0908234,0.16863874,175.5527,11/08.0/2020,2000,g 12.5,2.0
# From MPC 53304
P/2004 R3 (LINEAR-NEAT),e,12.8257,305.4807,38.7581,4.793362,0.0939169,0.26128054,329.5876,11/08.0/2020,2000,g 14.5,4.0
# From MPC 55521
P/2004 V3 (Siding Spring),e,50.4322,356.1153,322.2974,7.144222,0.0516145,0.44632105,302.7634,11/08.0/2020,2000,g 11.5,4.0
# From MPC 75705
P/2004 V5 (LINEAR-Hill),e,19.3453,47.7690,87.7905,7.975615,0.0437580,0.44353729,251.6677,11/08.0/2020,2000,g  8.0,4.0
# From MPC 54164
P/2005 E1 (Tubbiolo),e,4.2637,335.5729,194.1270,7.037335,0.0527949,0.37519358,304.2492,11/08.0/2020,2000,g 10.0,4.0
# From MPC 54823
P/2005 GF8 (LONEOS),e,1.1937,314.8348,285.1284,5.863481,0.0694178,0.51818465,28.1414,11/08.0/2020,2000,g 11.5,4.0
# From MPC 79019
P/2005 J1 (McNaught),e,31.7667,268.8031,338.9566,3.569751,0.1461326,0.56989206,110.6640,11/08.0/2020,2000,g 16.5,4.0
# From MPC 74246
P/2005 L1 (McNaught),e,7.7386,138.2477,149.6956,3.975235,0.1243540,0.20935481,315.2808,11/08.0/2020,2000,g  9.5,4.0
# From MPC 75706
P/2005 S2 (Skiff),e,3.1357,161.1958,229.1608,8.017429,0.0434162,0.19685794,230.0417,11/08.0/2020,2000,g  7.5,4.0
# From MPC 75706
P/2005 SB216 (LONEOS),e,24.0716,1.2416,83.3947,7.126953,0.0518022,0.46329535,261.6178,11/08.0/2020,2000,g 12.0,2.0
# From MPC 55717
P/2005 T2 (Christensen),e,8.2927,260.1574,58.8094,3.845934,0.1306777,0.41640859,27.9176,11/08.0/2020,2000,g 14.5,4.0
# From MPC 73461
P/2005 T3 (Read),e,6.2248,27.7449,7.0434,7.577035,0.0472558,0.17392168,260.0616,11/08.0/2020,2000,g  9.0,4.0
# From MPC 73461
P/2005 T4 (SWAN),e,160.1793,25.6646,41.5690,9.360854,0.0344137,0.92993349,189.9487,11/08.0/2020,2000,g 15.0,4.0
# From MPC 75706
P/2005 T5 (Broughton),e,21.3522,57.0076,304.5222,7.291699,0.0500566,0.55196941,275.9182,11/08.0/2020,2000,g 11.0,4.0
# From MPC 56954
P/2005 W3 (Kowalski),e,16.4172,210.0926,200.6741,6.332536,0.0618497,0.54352743,340.4115,11/08.0/2020,2000,g 12.0,4.0
# From MPC 75706
P/2005 XA54 (LONEOS-Hill),e,17.1188,143.6711,15.1382,6.052314,0.0661945,0.71018134,354.5532,11/08.0/2020,2000,g 14.0,4.0
# From MPC 75706
P/2005 Y2 (McNaught),e,19.0965,94.5129,194.0478,6.382440,0.0611257,0.47028697,1.1100,11/08.0/2020,2000,g  9.0,4.0
# From MPC 56954
P/2006 F4 (Spacewatch),e,12.4001,183.8852,31.1745,3.527318,0.1487775,0.33932411,68.9306,11/08.0/2020,2000,g 15.0,4.0
# From MPC 75707
P/2006 HR30 (Siding Spring),e,31.8303,309.9013,117.2918,7.811240,0.0451465,0.84200011,229.2500,11/08.0/2020,2000,g 11.0,4.0
# From MPC 75707
P/2006 S4 (Christensen),e,39.5363,36.0960,305.1515,6.310684,0.0621712,0.50794163,333.0966,11/08.0/2020,2000,g 11.0,4.0
# From MPC 75707
P/2007 A2 (Christensen),e,26.4877,300.9067,186.7617,6.324399,0.0619691,0.55755065,313.4349,11/08.0/2020,2000,g 13.5,4.0
# From MPC 59319
P/2007 B1 (Christensen),e,12.3763,77.6668,46.7531,5.819526,0.0702057,0.58092165,354.4788,11/08.0/2020,2000,g 13.5,4.0
# From MPC 75707
P/2007 C2 (Catalina),e,8.6610,275.6381,179.8790,6.994657,0.0532788,0.46991447,255.2413,11/08.0/2020,2000,g 10.0,4.0
# From MPC 82314
P/2007 K2 (Gibbs),e,7.6369,188.6471,347.4721,7.262390,0.0503599,0.68338220,246.9713,11/08.0/2020,2000,g 14.0,4.0
# From MPC 60925
P/2007 Q2 (Gilmore),e,10.2021,172.1606,162.7780,5.656127,0.0732699,0.67032946,358.6095,11/08.0/2020,2000,g 16.0,4.0
# From MPEC 2020-UQ9
P/2007 R2 (Gibbs),e,1.2135,11.4738,352.3572,3.573022,0.1459320,0.54189076,7.7787,11/08.0/2020,2000,g 17.0,4.0
# From MPC 75708
P/2007 R4 (Garradd),e,20.2271,87.2223,282.6709,5.925421,0.0683322,0.66996146,332.9488,11/08.0/2020,2000,g 14.5,4.0
# From MPC 73462
P/2007 S1 (Zhao),e,5.9631,141.3812,245.7564,3.812445,0.1324033,0.33964541,267.3650,11/08.0/2020,2000,g 13.0,4.0
# From MPC 61994
P/2007 T2 (Kowalski),e,9.7444,3.3753,359.6355,3.047229,0.1852876,0.78520781,155.3257,11/08.0/2020,2000,g 18.5,4.0
# From MPEC 2020-UR0
P/2007 VQ11 (Catalina),e,12.3200,163.8181,277.6602,5.425935,0.0779816,0.50325616,4.1071,11/08.0/2020,2000,g 12.0,4.0
# From MPC 75708
P/2008 CL94 (Lemmon),e,8.3474,33.3329,80.5401,6.160652,0.0644561,0.12024161,339.4983,11/08.0/2020,2000,g  8.0,4.0
# From MPC 75709
P/2008 L2 (Hill),e,25.8559,218.0050,141.2099,6.028636,0.0665849,0.61299788,299.1228,11/08.0/2020,2000,g 12.5,4.0
# From MPC 64114
P/2008 O3 (Boattini),e,32.2468,47.5996,341.0856,8.223450,0.0417949,0.69501380,190.2707,11/08.0/2020,2000,g 13.0,4.0
# From MPC 75709
P/2008 QP20 (LINEAR-Hill),e,7.5211,322.0817,75.6468,3.551736,0.1472458,0.49236729,298.1392,11/08.0/2020,2000,g 15.5,4.0
# From MPC 66204
P/2008 WZ96 (LINEAR),e,7.1127,56.4994,341.8464,3.491088,0.1510995,0.47050408,315.9344,11/08.0/2020,2000,g 13.5,4.0
# From MPC 75710
P/2008 Y3 (McNaught),e,38.7626,262.7895,238.2754,8.045771,0.0431870,0.44555207,187.1985,11/08.0/2020,2000,g  8.5,4.0
# From MPC 75710
P/2009 B1 (Boattini),e,22.2192,297.0914,128.8993,6.735653,0.0563812,0.63462830,243.6556,11/08.0/2020,2000,g 13.0,4.0
# From MPC 75710
P/2009 O3 (Hill),e,16.2630,183.7180,154.3846,7.770804,0.0454993,0.68750110,190.6478,11/08.0/2020,2000,g 12.5,4.0
# From MPC 98557
P/2009 Q1 (Hill),e,14.5054,173.9588,157.1248,5.519974,0.0759974,0.49474463,317.2761,11/08.0/2020,2000,g 11.5,4.0
# From MPEC 2020-SI8
P/2009 Q4 (Boattini),e,11.0152,127.4648,320.2335,3.127933,0.1781632,0.58257231,351.3154,11/08.0/2020,2000,g 15.5,4.0
# From MPC 68902
P/2009 Q5 (McNaught),e,40.9724,160.2613,209.0191,7.438325,0.0485838,0.60862212,198.4511,11/08.0/2020,2000,g 10.0,4.0
# From MPC112389
P/2009 T2 (La Sagra),e,27.5441,215.7876,216.4255,7.724487,0.0459092,0.76505085,182.1912,11/08.0/2020,2000,g 14.0,4.0
# From MPC 75711
P/2009 U4 (McNaught),e,10.0811,55.3588,259.8434,5.082894,0.0860077,0.67606674,352.6794,11/08.0/2020,2000,g 14.0,4.0
# From MPC105235
P/2009 WX51 (Catalina),e,9.5952,31.6857,118.0648,3.079869,0.1823500,0.74024920,358.4755,11/08.0/2020,2000,g 19.0,2.0
# From MPC 74247
P/2009 Y2 (Kowalski),e,29.9293,262.0241,172.1744,6.548900,0.0588100,0.63585480,229.5324,11/08.0/2020,2000,g 13.0,4.0
# From MPC 75711
P/2010 A3 (Hill),e,14.8671,64.1015,41.9280,6.075405,0.0658175,0.73324155,255.5574,11/08.0/2020,2000,g 14.0,4.0
# From MPC 72851
P/2010 A5 (LINEAR),e,5.7979,277.6638,307.0877,5.083593,0.0859900,0.66503717,330.4640,11/08.0/2020,2000,g 13.0,4.0
# From MPC105235
P/2010 B2 (WISE),e,8.9306,0.8481,155.9190,3.110000,0.1797064,0.47990186,355.2257,11/08.0/2020,2000,g 17.0,4.0
# From MPC 75008
P/2010 C1 (Scotti),e,9.1282,141.8862,3.7883,7.102724,0.0520675,0.25861059,208.7521,11/08.0/2020,2000,g  9.5,4.0
# From MPC 75008
P/2010 D2 (WISE),e,57.0848,319.8918,120.1006,6.715514,0.0566350,0.45084589,221.8504,11/08.0/2020,2000,g 16.0,4.0
# From MPC 75009
P/2010 E2 (Jarnac),e,15.4068,177.8251,8.3710,8.637795,0.0388240,0.72028574,150.2931,11/08.0/2020,2000,g 14.0,4.0
# From MPC 72851
P/2010 H2 (Vales),e,14.2728,64.2078,128.2056,3.834543,0.1312604,0.19564318,151.7129,11/08.0/2020,2000,g  6.0,4.0
# From MPC 70361
P/2010 H3 (SOHO),e,23.0928,77.1134,26.1268,3.060115,0.1841185,0.98548989,0.0000,02/07.9628/2021,2000,g 20.0,2.0
# From MPC 73463
P/2010 H4 (Scotti),e,2.3190,44.7481,179.5616,6.589428,0.0582683,0.26760535,221.0403,11/08.0/2020,2000,g 10.5,4.0
# From MPC 74637
P/2010 H5 (Scotti),e,14.0676,24.8093,175.2895,7.158366,0.0514616,0.15371637,198.8857,11/08.0/2020,2000,g 13.0,2.0
# From MPC 98558
P/2010 J3 (McMillan),e,13.2894,106.4089,157.5831,8.969932,0.0366877,0.72728564,136.5864,11/08.0/2020,2000,g 11.0,4.0
# From MPC 84315
P/2010 JC81 (WISE),e,38.7154,30.8417,12.4442,8.111348,0.0426643,0.77666118,148.9378,11/08.0/2020,2000,g  9.0,4.0
# From MPC 74248
P/2010 T2 (PANSTARRS),e,7.9175,59.0655,353.7280,5.512360,0.0761549,0.32153517,266.0088,11/08.0/2020,2000,g 11.5,4.0
# From MPC 98558
